STARLINK-30327          
1 57707U 23129K   26068.51769668  .00007635  00000+0  29314-3 0  9995
2 57707  42.9974  85.9834 0023030  70.8320 289.5022 15.26626807140903
STARLINK-35676          
1 67345U 26003M   26068.47740203  .00011848  00000+0  43947-3 0  9996
2 67345  43.0000 228.0670 0001337 268.6448  91.4250 15.27573613  8796
